CUTE-1 (CO-55)          
1 27844U 03031E   26093.50286751  .00000567  00000+0  26456-3 0  9999
2 27844  98.6770 102.9944 0010387  47.9217 312.2844 14.24288225181048
CUBESAT XI-IV (CO-57)   
1 27848U 03031J   26093.94602893  .00000464  00000+0  22289-3 0  9996
2 27848  98.6802 103.2044 0010511  63.1709 297.0543 14.23580366180818
CUBESAT XI-V            
1 28895U 05043F   26093.92840076  .00003380  00000+0  54043-3 0  9992
2 28895  98.2882 248.0380 0015323  82.7657 277.5291 14.72431745 90825
CUTE-1.7+APD II (CO-65) 
1 32785U 08021C   26094.25070638  .00009772  00000+0  62586-3 0  9992
2 32785  97.8239  74.1938 0007116 283.3320  76.7114 15.08746428974048
CANX-2                  
1 32790U 08021H   26093.90668435  .00008238  00000+0  58313-3 0  9996
2 32790  97.8581  72.2955 0008937 300.2164  59.8176 15.05076579973633
SEEDS II (CO-66)        
1 32791U 08021J   26094.23743945  .00032687  00000+0  11161-2 0  9998
2 32791  97.7528  88.7558 0002917 161.1611 198.9737 15.30245025975977
SWISSCUBE               
1 35932U 09051B   26094.27417133  .00002034  00000+0  41221-3 0  9997
2 35932  98.4078   0.8689 0008097  83.1361 277.0761 14.62335375878357
BEESAT-1                
1 35933U 09051C   26094.17725522  .00001677  00000+0  34725-3 0  9994
2 35933  98.4009   0.5587 0006535  94.9229 265.2718 14.61596567878378
ITUPSAT1                
1 35935U 09051E   26094.24063622  .00001541  00000+0  32888-3 0  9998
2 35935  98.4094 359.8921 0008644 104.9075 255.3082 14.60326440877946
TISAT 1                 
1 36799U 10035E   26093.76936484  .00035947  00000+0  12789-2 0  9996
2 36799  98.0674  33.9149 0004140 120.3655 239.7993 15.28881560856320
AEROCUBE 4.5A           
1 38767U 12048K   26093.90778054  .00184182  00000+0  15960-2 0  9992
2 38767  64.6343 291.9358 0035004 209.3343 150.5842 15.67525821360930
STRAND-1                
1 39090U 13009E   26093.97733624  .00000593  00000+0  21376-3 0  9993
2 39090  98.3906 276.0425 0009856  93.1051 267.1264 14.37118190686408
BRITE-AUSTRIA           
1 39091U 13009F   26094.02819480  .00000377  00000+0  14299-3 0  9992
2 39091  98.3975 275.3041 0011383 100.8326 259.4142 14.36511780686400
NEE-01 PEGASO           
1 39151U 13018B   26093.82965833  .00005522  00000+0  53212-3 0  9995
2 39151  98.1108 235.5903 0013596  53.0789 307.1673 14.93292166699601
POPACS 2                
1 39269U 13055E   26093.78513077  .00030276  00000+0  51705-3 0  9999
2 39269  80.9927 229.2276 0425792  72.6674 292.0642 14.89187326652138
POPACS 3                
1 39270U 13055F   26093.99777175  .00010721  00000+0  26081-3 0  9997
2 39270  81.0009 309.5478 0556512 295.7617  58.7150 14.54566066627765
