[{"OBJECT_NAME":"CUTE-1 (CO-55)","OBJECT_ID":"2003-031E","EPOCH":"2026-04-03T12:04:07.752864","MEAN_MOTION":14.24288225,"ECCENTRICITY":0.00103879,"INCLINATION":98.677,"RA_OF_ASC_NODE":102.9944,"ARG_OF_PERICENTER":47.9217,"MEAN_ANOMALY":312.2844,"EPHEMERIS_TYPE":0,"CLASSIFICATION_TYPE":"U","NORAD_CAT_ID":27844,"ELEMENT_SET_NO":999,"REV_AT_EPOCH":18104,"BSTAR":0.00026455985,"MEAN_MOTION_DOT":5.67e-6,"MEAN_MOTION_DDOT":0},{"OBJECT_NAME":"CUBESAT XI-IV (CO-57)","OBJECT_ID":"2003-031J","EPOCH":"2026-04-03T22:42:16.899552","MEAN_MOTION":14.23580366,"ECCENTRICITY":0.0010511,"INCLINATION":98.6802,"RA_OF_ASC_NODE":103.2044,"ARG_OF_PERICENTER":63.1709,"MEAN_ANOMALY":297.0543,"EPHEMERIS_TYPE":0,"CLASSIFICATION_TYPE":"U","NORAD_CAT_ID":27848,"ELEMENT_SET_NO":999,"REV_AT_EPOCH":18081,"BSTAR":0.00022289284,"MEAN_MOTION_DOT":4.64e-6,"MEAN_MOTION_DDOT":0},{"OBJECT_NAME":"CUBESAT XI-V","OBJECT_ID":"2005-043F","EPOCH":"2026-04-03T22:16:53.825664","MEAN_MOTION":14.72431745,"ECCENTRICITY":0.00153231,"INCLINATION":98.2882,"RA_OF_ASC_NODE":248.038,"ARG_OF_PERICENTER":82.7657,"MEAN_ANOMALY":277.5291,"EPHEMERIS_TYPE":0,"CLASSIFICATION_TYPE":"U","NORAD_CAT_ID":28895,"ELEMENT_SET_NO":999,"REV_AT_EPOCH":9082,"BSTAR":0.00054043169,"MEAN_MOTION_DOT":3.38e-5,"MEAN_MOTION_DDOT":0},{"OBJECT_NAME":"CUTE-1.7+APD II (CO-65)","OBJECT_ID":"2008-021C","EPOCH":"2026-04-04T06:01:01.031232","MEAN_MOTION":15.08746428,"ECCENTRICITY":0.00071161,"INCLINATION":97.8239,"RA_OF_ASC_NODE":74.1938,"ARG_OF_PERICENTER":283.332,"MEAN_ANOMALY":76.7114,"EPHEMERIS_TYPE":0,"CLASSIFICATION_TYPE":"U","NORAD_CAT_ID":32785,"ELEMENT_SET_NO":999,"REV_AT_EPOCH":97404,"BSTAR":0.00062586463,"MEAN_MOTION_DOT":9.772e-5,"MEAN_MOTION_DDOT":0},{"OBJECT_NAME":"CANX-2","OBJECT_ID":"2008-021H","EPOCH":"2026-04-03T21:45:37.527840","MEAN_MOTION":15.05076579,"ECCENTRICITY":0.00089374,"INCLINATION":97.8581,"RA_OF_ASC_NODE":72.2955,"ARG_OF_PERICENTER":300.2164,"MEAN_ANOMALY":59.8176,"EPHEMERIS_TYPE":0,"CLASSIFICATION_TYPE":"U","NORAD_CAT_ID":32790,"ELEMENT_SET_NO":999,"REV_AT_EPOCH":97363,"BSTAR":0.00058313422,"MEAN_MOTION_DOT":8.238e-5,"MEAN_MOTION_DDOT":0},{"OBJECT_NAME":"SEEDS II (CO-66)","OBJECT_ID":"2008-021J","EPOCH":"2026-04-04T05:41:54.768480","MEAN_MOTION":15.30245025,"ECCENTRICITY":0.00029178,"INCLINATION":97.7528,"RA_OF_ASC_NODE":88.7558,"ARG_OF_PERICENTER":161.1611,"MEAN_ANOMALY":198.9737,"EPHEMERIS_TYPE":0,"CLASSIFICATION_TYPE":"U","NORAD_CAT_ID":32791,"ELEMENT_SET_NO":999,"REV_AT_EPOCH":97597,"BSTAR":0.0011161136,"MEAN_MOTION_DOT":0.00032687,"MEAN_MOTION_DDOT":0},{"OBJECT_NAME":"SWISSCUBE","OBJECT_ID":"2009-051B","EPOCH":"2026-04-04T06:34:48.402912","MEAN_MOTION":14.62335375,"ECCENTRICITY":0.00080979,"INCLINATION":98.4078,"RA_OF_ASC_NODE":0.8689,"ARG_OF_PERICENTER":83.1361,"MEAN_ANOMALY":277.0761,"EPHEMERIS_TYPE":0,"CLASSIFICATION_TYPE":"U","NORAD_CAT_ID":35932,"ELEMENT_SET_NO":999,"REV_AT_EPOCH":87835,"BSTAR":0.00041220982,"MEAN_MOTION_DOT":2.034e-5,"MEAN_MOTION_DDOT":0},{"OBJECT_NAME":"BEESAT-1","OBJECT_ID":"2009-051C","EPOCH":"2026-04-04T04:15:14.851008","MEAN_MOTION":14.61596567,"ECCENTRICITY":0.00065351,"INCLINATION":98.4009,"RA_OF_ASC_NODE":0.5587,"ARG_OF_PERICENTER":94.9229,"MEAN_ANOMALY":265.2718,"EPHEMERIS_TYPE":0,"CLASSIFICATION_TYPE":"U","NORAD_CAT_ID":35933,"ELEMENT_SET_NO":999,"REV_AT_EPOCH":87837,"BSTAR":0.00034724885,"MEAN_MOTION_DOT":1.677e-5,"MEAN_MOTION_DDOT":0},{"OBJECT_NAME":"ITUPSAT1","OBJECT_ID":"2009-051E","EPOCH":"2026-04-04T05:46:30.969408","MEAN_MOTION":14.6032644,"ECCENTRICITY":0.00086449,"INCLINATION":98.4094,"RA_OF_ASC_NODE":359.8921,"ARG_OF_PERICENTER":104.9075,"MEAN_ANOMALY":255.3082,"EPHEMERIS_TYPE":0,"CLASSIFICATION_TYPE":"U","NORAD_CAT_ID":35935,"ELEMENT_SET_NO":999,"REV_AT_EPOCH":87794,"BSTAR":0.00032887555,"MEAN_MOTION_DOT":1.541e-5,"MEAN_MOTION_DDOT":0},{"OBJECT_NAME":"TISAT 1","OBJECT_ID":"2010-035E","EPOCH":"2026-04-03T18:27:53.122176","MEAN_MOTION":15.2888156,"ECCENTRICITY":0.00041404,"INCLINATION":98.0674,"RA_OF_ASC_NODE":33.9149,"ARG_OF_PERICENTER":120.3655,"MEAN_ANOMALY":239.7993,"EPHEMERIS_TYPE":0,"CLASSIFICATION_TYPE":"U","NORAD_CAT_ID":36799,"ELEMENT_SET_NO":999,"REV_AT_EPOCH":85632,"BSTAR":0.0012789145,"MEAN_MOTION_DOT":0.00035947,"MEAN_MOTION_DDOT":0},{"OBJECT_NAME":"AEROCUBE 4.5A","OBJECT_ID":"2012-048K","EPOCH":"2026-04-03T21:47:12.238656","MEAN_MOTION":15.67525821,"ECCENTRICITY":0.00350046,"INCLINATION":64.6343,"RA_OF_ASC_NODE":291.9358,"ARG_OF_PERICENTER":209.3343,"MEAN_ANOMALY":150.5842,"EPHEMERIS_TYPE":0,"CLASSIFICATION_TYPE":"U","NORAD_CAT_ID":38767,"ELEMENT_SET_NO":999,"REV_AT_EPOCH":36093,"BSTAR":0.0015959994,"MEAN_MOTION_DOT":0.00184182,"MEAN_MOTION_DDOT":0},{"OBJECT_NAME":"STRAND-1","OBJECT_ID":"2013-009E","EPOCH":"2026-04-03T23:27:21.851136","MEAN_MOTION":14.3711819,"ECCENTRICITY":0.0009856,"INCLINATION":98.3906,"RA_OF_ASC_NODE":276.0425,"ARG_OF_PERICENTER":93.1051,"MEAN_ANOMALY":267.1264,"EPHEMERIS_TYPE":0,"CLASSIFICATION_TYPE":"U","NORAD_CAT_ID":39090,"ELEMENT_SET_NO":999,"REV_AT_EPOCH":68640,"BSTAR":0.00021376263,"MEAN_MOTION_DOT":5.93e-6,"MEAN_MOTION_DDOT":0},{"OBJECT_NAME":"BRITE-AUSTRIA","OBJECT_ID":"2013-009F","EPOCH":"2026-04-04T00:40:36.030720","MEAN_MOTION":14.3651178,"ECCENTRICITY":0.00113831,"INCLINATION":98.3975,"RA_OF_ASC_NODE":275.3041,"ARG_OF_PERICENTER":100.8326,"MEAN_ANOMALY":259.4142,"EPHEMERIS_TYPE":0,"CLASSIFICATION_TYPE":"U","NORAD_CAT_ID":39091,"ELEMENT_SET_NO":999,"REV_AT_EPOCH":68640,"BSTAR":0.00014299405,"MEAN_MOTION_DOT":3.77e-6,"MEAN_MOTION_DDOT":0},{"OBJECT_NAME":"NEE-01 PEGASO","OBJECT_ID":"2013-018B","EPOCH":"2026-04-03T19:54:42.479712","MEAN_MOTION":14.93292166,"ECCENTRICITY":0.00135962,"INCLINATION":98.1108,"RA_OF_ASC_NODE":235.5903,"ARG_OF_PERICENTER":53.0789,"MEAN_ANOMALY":307.1673,"EPHEMERIS_TYPE":0,"CLASSIFICATION_TYPE":"U","NORAD_CAT_ID":39151,"ELEMENT_SET_NO":999,"REV_AT_EPOCH":69960,"BSTAR":0.00053212343,"MEAN_MOTION_DOT":5.522e-5,"MEAN_MOTION_DDOT":0},{"OBJECT_NAME":"POPACS 2","OBJECT_ID":"2013-055E","EPOCH":"2026-04-03T18:50:35.298528","MEAN_MOTION":14.89187326,"ECCENTRICITY":0.04257927,"INCLINATION":80.9927,"RA_OF_ASC_NODE":229.2276,"ARG_OF_PERICENTER":72.6674,"MEAN_ANOMALY":292.0642,"EPHEMERIS_TYPE":0,"CLASSIFICATION_TYPE":"U","NORAD_CAT_ID":39269,"ELEMENT_SET_NO":999,"REV_AT_EPOCH":65213,"BSTAR":0.00051704852,"MEAN_MOTION_DOT":0.00030276,"MEAN_MOTION_DDOT":0},{"OBJECT_NAME":"POPACS 3","OBJECT_ID":"2013-055F","EPOCH":"2026-04-03T23:56:47.479200","MEAN_MOTION":14.54566066,"ECCENTRICITY":0.05565127,"INCLINATION":81.0009,"RA_OF_ASC_NODE":309.5478,"ARG_OF_PERICENTER":295.7617,"MEAN_ANOMALY":58.715,"EPHEMERIS_TYPE":0,"CLASSIFICATION_TYPE":"U","NORAD_CAT_ID":39270,"ELEMENT_SET_NO":999,"REV_AT_EPOCH":62776,"BSTAR":0.00026080912,"MEAN_MOTION_DOT":0.00010721,"MEAN_MOTION_DDOT":0}]
